start=new Date('2022-10-02T00:00:00.000Z').valueOf();
sats=[{"RCS_SIZE":"LARGE","ECCENTRICITY":"0.00014580","EPHEMERIS_TYPE":"0","SITE":"AFETR","TIME_SYSTEM":"UTC","TLE_LINE1":"1 46359U 20062AL  22274.78959086  .00007044  00000-0  49105-3 0  9993","MEAN_MOTION_DOT":"0.00007044","INCLINATION":"53.0530","ELEMENT_SET_NO":"999","REV_AT_EPOCH":"11597","ARG_OF_PERICENTER":"75.6224","PERIOD":"95.591","DECAY_DATE":null,"REF_FRAME":"TEME","CLASSIFICATION_TYPE":"U","LAUNCH_DATE":"2020-09-03","OBJECT_TYPE":"PAYLOAD","MEAN_ELEMENT_THEORY":"SGP4","COUNTRY_CODE":"US","MEAN_MOTION_DDOT":"0.0000000000000","GP_ID":"213951913","MEAN_MOTION":"15.06421369","OBJECT_ID":"2020-062AL","SEMIMAJOR_AXIS":"6925.283","BSTAR":"0.00049105000000","TLE_LINE2":"2 46359  53.0530 205.0971 0001458  75.6224 284.4927 15.06421369115979","APOAPSIS":"548.158","RA_OF_ASC_NODE":"205.0971","NORAD_CAT_ID":"46359","MEAN_ANOMALY":"284.4927","EPOCH":"2022-10-01T18:57:00.650304","OBJECT_NAME":"STARLINK-1707","CENTER_NAME":"EARTH","FILE":"3588699","PERIAPSIS":"546.138"},{"COUNTRY_CODE":"US","MEAN_MOTION_DDOT":"0.0000000000000","GP_ID":"213943106","MEAN_MOTION":"15.06410978","OBJECT_ID":"2020-062AM","SEMIMAJOR_AXIS":"6925.315","TLE_LINE2":"2 46360  53.0530 207.3774 0001697  64.4463 295.6702 15.06410978115725","BSTAR":"0.00032219000000","RA_OF_ASC_NODE":"207.3774","APOAPSIS":"548.355","MEAN_ANOMALY":"295.6702","NORAD_CAT_ID":"46360","CENTER_NAME":"EARTH","OBJECT_NAME":"STARLINK-1713","EPOCH":"2022-10-01T06:44:31.806816","PERIAPSIS":"546.005","FILE":"3588593","RCS_SIZE":"LARGE","ECCENTRICITY":"0.00016970","SITE":"AFETR","EPHEMERIS_TYPE":"0","TIME_SYSTEM":"UTC","TLE_LINE1":"1 46360U 20062AM  22274.28092369  .00004522  00000-0  32219-3 0  9998","MEAN_MOTION_DOT":"0.00004522","INCLINATION":"53.0530","REV_AT_EPOCH":"11572","ELEMENT_SET_NO":"999","DECAY_DATE":null,"ARG_OF_PERICENTER":"64.4463","PERIOD":"95.591","REF_FRAME":"TEME","CLASSIFICATION_TYPE":"U","LAUNCH_DATE":"2020-09-03","OBJECT_TYPE":"PAYLOAD","MEAN_ELEMENT_THEORY":"SGP4"},{"RCS_SIZE":"LARGE","SITE":"AFETR","EPHEMERIS_TYPE":"0","ECCENTRICITY":"0.00015300","TLE_LINE1":"1 46361U 20062AN  22274.51588302  .00000918  00000-0  80498-4 0  9990","TIME_SYSTEM":"UTC","INCLINATION":"53.0547","MEAN_MOTION_DOT":"0.00000918","DECAY_DATE":null,"PERIOD":"95.592","ARG_OF_PERICENTER":"71.1504","REV_AT_EPOCH":"11592","ELEMENT_SET_NO":"999","REF_FRAME":"TEME","LAUNCH_DATE":"2020-09-03","CLASSIFICATION_TYPE":"U","MEAN_ELEMENT_THEORY":"SGP4","OBJECT_TYPE":"PAYLOAD","COUNTRY_CODE":"US","MEAN_MOTION_DDOT":"0.0000000000000","GP_ID":"213919254","MEAN_MOTION":"15.06402372","TLE_LINE2":"2 46361  53.0547 206.2893 0001530  71.1504 288.9650 15.06402372115929","BSTAR":"0.00008049800000","OBJECT_ID":"2020-062AN","SEMIMAJOR_AXIS":"6925.341","RA_OF_ASC_NODE":"206.2893","APOAPSIS":"548.266","NORAD_CAT_ID":"46361","MEAN_ANOMALY":"288.9650","PERIAPSIS":"546.147","FILE":"3588401","CENTER_NAME":"EARTH","OBJECT_NAME":"STARLINK-1722","EPOCH":"2022-10-01T12:22:52.292928"},{"INCLINATION":"53.0552","MEAN_MOTION_DOT":"0.00002500","TIME_SYSTEM":"UTC","TLE_LINE1":"1 46362U 20062AP  22274.22933228  .00002500  00000-0  18663-3 0  9993","ECCENTRICITY":"0.00015420","EPHEMERIS_TYPE":"0","SITE":"AFETR","RCS_SIZE":"LARGE","OBJECT_TYPE":"PAYLOAD","MEAN_ELEMENT_THEORY":"SGP4","CLASSIFICATION_TYPE":"U","LAUNCH_DATE":"2020-09-03","REF_FRAME":"TEME","ELEMENT_SET_NO":"999","REV_AT_EPOCH":"11571","ARG_OF_PERICENTER":"73.9777","PERIOD":"95.592","DECAY_DATE":null,"MEAN_MOTION":"15.06406355","GP_ID":"213944604","MEAN_MOTION_DDOT":"0.0000000000000","COUNTRY_CODE":"US","EPOCH":"2022-10-01T05:30:14.308992","CENTER_NAME":"EARTH","OBJECT_NAME":"STARLINK-1726","FILE":"3588593","PERIAPSIS":"546.126","NORAD_CAT_ID":"46362","MEAN_ANOMALY":"286.1382","APOAPSIS":"548.262","RA_OF_ASC_NODE":"207.6062","SEMIMAJOR_AXIS":"6925.329","OBJECT_ID":"2020-062AP","BSTAR":"0.00018663000000","TLE_LINE2":"2 46362  53.0552 207.6062 0001542  73.9777 286.1382 15.06406355115718"},{"MEAN_MOTION":"15.06410644","GP_ID":"213943357","MEAN_MOTION_DDOT":"0.0000000000000","COUNTRY_CODE":"US","PERIAPSIS":"545.855","FILE":"3588593","CENTER_NAME":"EARTH","OBJECT_NAME":"STARLINK-1739","EPOCH":"2022-10-01T13:15:56.780064","MEAN_ANOMALY":"287.4426","NORAD_CAT_ID":"46363","RA_OF_ASC_NODE":"206.1274","APOAPSIS":"548.506","BSTAR":"0.00039000000000","TLE_LINE2":"2 46363  53.0535 206.1274 0001914  72.6772 287.4426 15.06410644115767","SEMIMAJOR_AXIS":"6925.316","OBJECT_ID":"2020-062AQ","MEAN_MOTION_DOT":"0.00005534","INCLINATION":"53.0535","TLE_LINE1":"1 46363U 20062AQ  22274.55274051  .00005534  00000-0  39000-3 0  9990","TIME_SYSTEM":"UTC","EPHEMERIS_TYPE":"0","SITE":"AFETR","ECCENTRICITY":"0.00019140","RCS_SIZE":"LARGE","MEAN_ELEMENT_THEORY":"SGP4","OBJECT_TYPE":"PAYLOAD","LAUNCH_DATE":"2020-09-03","CLASSIFICATION_TYPE":"U","REF_FRAME":"TEME","DECAY_DATE":null,"ARG_OF_PERICENTER":"72.6772","PERIOD":"95.591","REV_AT_EPOCH":"11576","ELEMENT_SET_NO":"999"},{"CLASSIFICATION_TYPE":"U","LAUNCH_DATE":"2020-09-03","OBJECT_TYPE":"PAYLOAD","MEAN_ELEMENT_THEORY":"SGP4","ELEMENT_SET_NO":"999","REV_AT_EPOCH":"11596","PERIOD":"95.590","ARG_OF_PERICENTER":"114.1901","DECAY_DATE":null,"REF_FRAME":"TEME","TIME_SYSTEM":"UTC","TLE_LINE1":"1 46364U 20062AR  22274.09116991  .00020566  00000-0  13945-2 0  9999","INCLINATION":"53.0530","MEAN_MOTION_DOT":"0.00020566","RCS_SIZE":"LARGE","ECCENTRICITY":"0.00014470","SITE":"AFETR","EPHEMERIS_TYPE":"0","MEAN_ANOMALY":"245.9239","NORAD_CAT_ID":"46364","EPOCH":"2022-10-01T02:11:17.080224","CENTER_NAME":"EARTH","OBJECT_NAME":"STARLINK-1763","FILE":"3588593","PERIAPSIS":"546.129","SEMIMAJOR_AXIS":"6925.267","OBJECT_ID":"2020-062AR","BSTAR":"0.00139450000000","TLE_LINE2":"2 46364  53.0530 188.7164 0001447 114.1901 245.9239 15.06426755115966","APOAPSIS":"548.134","RA_OF_ASC_NODE":"188.7164","GP_ID":"213943607","MEAN_MOTION":"15.06426755","COUNTRY_CODE":"US","MEAN_MOTION_DDOT":"0.0000000000000"},{"PERIAPSIS":"546.275","FILE":"3588637","CENTER_NAME":"EARTH","OBJECT_NAME":"STARLINK-1550","EPOCH":"2022-10-01T12:45:28.429056","MEAN_ANOMALY":"286.1867","NORAD_CAT_ID":"46365","RA_OF_ASC_NODE":"206.2399","APOAPSIS":"548.115","BSTAR":"0.00022190000000","TLE_LINE2":"2 46365  53.0551 206.2399 0001328  73.9268 286.1867 15.06406044115910","SEMIMAJOR_AXIS":"6925.330","OBJECT_ID":"2020-062AS","MEAN_MOTION":"15.06406044","GP_ID":"213950257","MEAN_MOTION_DDOT":"0.0000000000000","COUNTRY_CODE":"US","MEAN_ELEMENT_THEORY":"SGP4","OBJECT_TYPE":"PAYLOAD","LAUNCH_DATE":"2020-09-03","CLASSIFICATION_TYPE":"U","REF_FRAME":"TEME","DECAY_DATE":null,"ARG_OF_PERICENTER":"73.9268","PERIOD":"95.592","REV_AT_EPOCH":"11591","ELEMENT_SET_NO":"999","MEAN_MOTION_DOT":"0.00003026","INCLINATION":"53.0551","TLE_LINE1":"1 46365U 20062AS  22274.53157904  .00003026  00000-0  22190-3 0  9993","TIME_SYSTEM":"UTC","EPHEMERIS_TYPE":"0","SITE":"AFETR","ECCENTRICITY":"0.00013280","RCS_SIZE":"LARGE"},{"TIME_SYSTEM":"UTC","TLE_LINE1":"1 46366U 20062AT  22274.58686474  .00003931  00000-0  28260-3 0  9997","MEAN_MOTION_DOT":"0.00003931","INCLINATION":"53.0542","RCS_SIZE":"LARGE","ECCENTRICITY":"0.00011410","EPHEMERIS_TYPE":"0","SITE":"AFETR","CLASSIFICATION_TYPE":"U","LAUNCH_DATE":"2020-09-03","OBJECT_TYPE":"PAYLOAD","MEAN_ELEMENT_THEORY":"SGP4","ELEMENT_SET_NO":"999","REV_AT_EPOCH":"11576","PERIOD":"95.592","ARG_OF_PERICENTER":"86.4903","DECAY_DATE":null,"REF_FRAME":"TEME","GP_ID":"213974283","MEAN_MOTION":"15.06404911","COUNTRY_CODE":"US","MEAN_MOTION_DDOT":"0.0000000000000","MEAN_ANOMALY":"273.6217","NORAD_CAT_ID":"46366","EPOCH":"2022-10-01T14:05:05.113536","OBJECT_NAME":"STARLINK-1651","CENTER_NAME":"EARTH","FILE":"3588844","PERIAPSIS":"546.408","OBJECT_ID":"2020-062AT","SEMIMAJOR_AXIS":"6925.334","TLE_LINE2":"2 46366  53.0542 205.9979 0001141  86.4903 273.6217 15.06404911115763","BSTAR":"0.00028260000000","APOAPSIS":"547.989","RA_OF_ASC_NODE":"205.9979"},{"RCS_SIZE":"LARGE","ECCENTRICITY":"0.00013500","EPHEMERIS_TYPE":"0","SITE":"AFETR","TIME_SYSTEM":"UTC","TLE_LINE1":"1 46368U 20062AV  22274.58545460 -.00002096  00000-0 -12187-3 0  9992","INCLINATION":"53.0538","MEAN_MOTION_DOT":"-0.00002096","ELEMENT_SET_NO":"999","REV_AT_EPOCH":"11542","PERIOD":"95.593","ARG_OF_PERICENTER":"72.5596","DECAY_DATE":null,"REF_FRAME":"TEME","CLASSIFICATION_TYPE":"U","LAUNCH_DATE":"2020-09-03","OBJECT_TYPE":"PAYLOAD","MEAN_ELEMENT_THEORY":"SGP4","COUNTRY_CODE":"US","MEAN_MOTION_DDOT":"0.0000000000000","GP_ID":"213975534","MEAN_MOTION":"15.06390623","OBJECT_ID":"2020-062AV","SEMIMAJOR_AXIS":"6925.377","BSTAR":"-0.00012187000000","TLE_LINE2":"2 46368  53.0538 230.9813 0001350  72.5596 287.5540 15.06390623115421","APOAPSIS":"548.177","RA_OF_ASC_NODE":"230.9813","MEAN_ANOMALY":"287.5540","NORAD_CAT_ID":"46368","EPOCH":"2022-10-01T14:03:03.277440","CENTER_NAME":"EARTH","OBJECT_NAME":"STARLINK-1658","FILE":"3588844","PERIAPSIS":"546.307"},{"CLASSIFICATION_TYPE":"U","LAUNCH_DATE":"2020-09-03","OBJECT_TYPE":"PAYLOAD","MEAN_ELEMENT_THEORY":"SGP4","REV_AT_EPOCH":"11542","ELEMENT_SET_NO":"999","DECAY_DATE":null,"ARG_OF_PERICENTER":"62.6048","PERIOD":"95.591","REF_FRAME":"TEME","TIME_SYSTEM":"UTC","TLE_LINE1":"1 46370U 20062AX  22274.61589287  .00006437  00000-0  45046-3 0  9995","MEAN_MOTION_DOT":"0.00006437","INCLINATION":"53.0537","RCS_SIZE":"LARGE","ECCENTRICITY":"0.00016870","EPHEMERIS_TYPE":"0","SITE":"AFETR","NORAD_CAT_ID":"46370","MEAN_ANOMALY":"297.5112","CENTER_NAME":"EARTH","OBJECT_NAME":"STARLINK-1670","EPOCH":"2022-10-01T14:46:53.143968","PERIAPSIS":"545.996","FILE":"3588844","OBJECT_ID":"2020-062AX","SEMIMAJOR_AXIS":"6925.299","TLE_LINE2":"2 46370  53.0537 230.8629 0001687  62.6048 297.5112 15.06416018115425","BSTAR":"0.00045046000000","RA_OF_ASC_NODE":"230.8629","APOAPSIS":"548.333","GP_ID":"213975285","MEAN_MOTION":"15.06416018","COUNTRY_CODE":"US","MEAN_MOTION_DDOT":"0.0000000000000"}];
